{
  "type": "FeatureCollection",
  "features": [
    {
      "type": "Feature",
      "properties": {
        "norad_id": 37836,
        "name": "EUTELSAT 16A",
        "group": "eutelsat",
        "lat": -0.034602710297151576,
        "lon": 177.66735049613354,
        "alt_km": 35786.401174794584,
        "timestamp": "2025-12-18T04:58:34.251925+00:00",
        "meta_object_name": "EUTELSAT 16A",
        "meta_object_id": "2011-057A",
        "meta_epoch": "2025-12-17T18:32:22.590816",
        "meta_mean_motion": 1.00274602,
        "meta_eccentricity": 0.00061689,
        "meta_inclination": 0.063,
        "meta_ra_of_asc_node": 331.6836,
        "meta_arg_of_pericenter": 298.6095,
        "meta_mean_anomaly": 110.4755,
        "meta_ephemeris_type": 0,
        "meta_classification_type": "U",
        "meta_norad_cat_id": 37836,
        "meta_element_set_no": 999,
        "meta_rev_at_epoch": 550,
        "meta_bstar": 0,
        "meta_mean_motion_dot": 1.3e-06,
        "meta_mean_motion_ddot": 0,
        "tle_line1": "1 37836U 11057A   25351.77248369  .00000130  00000+0  00000+0 0  9995",
        "tle_line2": "2 37836   0.0630 331.6836 0006168 298.6095 110.4755  1.00274602  5503"
      },
      "geometry": {
        "type": "Point",
        "coordinates": [
          177.66735049613354,
          -0.034602710297151576
        ]
      }
    },
    {
      "type": "Feature",
      "properties": {
        "norad_id": 38992,
        "name": "EUTELSAT 21B",
        "group": "eutelsat",
        "lat": -0.04377097399591048,
        "lon": -176.70366920455243,
        "alt_km": 35785.90894732158,
        "timestamp": "2025-12-18T04:58:34.251939+00:00",
        "meta_object_name": "EUTELSAT 21B",
        "meta_object_id": "2012-062B",
        "meta_epoch": "2025-12-17T18:33:52.446816",
        "meta_mean_motion": 1.0027457,
        "meta_eccentricity": 0.00034945,
        "meta_inclination": 0.0718,
        "meta_ra_of_asc_node": 334.5184,
        "meta_arg_of_pericenter": 301.451,
        "meta_mean_anomaly": 110.7729,
        "meta_ephemeris_type": 0,
        "meta_classification_type": "U",
        "meta_norad_cat_id": 38992,
        "meta_element_set_no": 999,
        "meta_rev_at_epoch": 4800,
        "meta_bstar": 0,
        "meta_mean_motion_dot": 1.55e-06,
        "meta_mean_motion_ddot": 0,
        "tle_line1": "1 38992U 12062B   25351.77352369  .00000155  00000+0  00000+0 0  9999",
        "tle_line2": "2 38992   0.0718 334.5184 0003494 301.4510 110.7729  1.00274570 48006"
      },
      "geometry": {
        "type": "Point",
        "coordinates": [
          -176.70366920455243,
          -0.04377097399591048
        ]
      }
    },
    {
      "type": "Feature",
      "properties": {
        "norad_id": 39020,
        "name": "EUTELSAT 70B",
        "group": "eutelsat",
        "lat": -0.07292321480700009,
        "lon": -127.81795559891249,
        "alt_km": 35769.050330372695,
        "timestamp": "2025-12-18T04:58:34.251952+00:00",
        "meta_object_name": "EUTELSAT 70B",
        "meta_object_id": "2012-069A",
        "meta_epoch": "2025-12-17T19:52:21.785088",
        "meta_mean_motion": 1.00271214,
        "meta_eccentricity": 0.00043005,
        "meta_inclination": 0.0606,
        "meta_ra_of_asc_node": 358.1283,
        "meta_arg_of_pericenter": 253.2547,
        "meta_mean_anomaly": 203.9024,
        "meta_ephemeris_type": 0,
        "meta_classification_type": "U",
        "meta_norad_cat_id": 39020,
        "meta_element_set_no": 999,
        "meta_rev_at_epoch": 4769,
        "meta_bstar": 0,
        "meta_mean_motion_dot": -1.8e-07,
        "meta_mean_motion_ddot": 0,
        "tle_line1": "1 39020U 12069A   25351.82802992 -.00000018  00000+0  00000+0 0  9996",
        "tle_line2": "2 39020   0.0606 358.1283 0004300 253.2547 203.9024  1.00271214 47697"
      },
      "geometry": {
        "type": "Point",
        "coordinates": [
          -127.81795559891249,
          -0.07292321480700009
        ]
      }
    },
    {
      "type": "Feature",
      "properties": {
        "norad_id": 39122,
        "name": "EUTELSAT 117 WEST A",
        "group": "eutelsat",
        "lat": 0.016619597448402832,
        "lon": 44.930348678947254,
        "alt_km": 35793.72763063237,
        "timestamp": "2025-12-18T04:58:34.251964+00:00",
        "meta_object_name": "EUTELSAT 117 WEST A",
        "meta_object_id": "2013-012A",
        "meta_epoch": "2025-12-17T21:19:42.079008",
        "meta_mean_motion": 1.00272801,
        "meta_eccentricity": 0.0002719,
        "meta_inclination": 0.0266,
        "meta_ra_of_asc_node": 43.835,
        "meta_arg_of_pericenter": 227.5866,
        "meta_mean_anomaly": 18.4652,
        "meta_ephemeris_type": 0,
        "meta_classification_type": "U",
        "meta_norad_cat_id": 39122,
        "meta_element_set_no": 999,
        "meta_rev_at_epoch": 4661,
        "meta_bstar": 0,
        "meta_mean_motion_dot": 1.2e-07,
        "meta_mean_motion_ddot": 0,
        "tle_line1": "1 39122U 13012A   25351.88868147  .00000012  00000+0  00000+0 0  9991",
        "tle_line2": "2 39122   0.0266  43.8350 0002719 227.5866  18.4652  1.00272801 46615"
      },
      "geometry": {
        "type": "Point",
        "coordinates": [
          44.930348678947254,
          0.016619597448402832
        ]
      }
    },
    {
      "type": "Feature",
      "properties": {
        "norad_id": 39163,
        "name": "EUTELSAT 7B",
        "group": "eutelsat",
        "lat": 0.004821836917209914,
        "lon": 168.68852736655842,
        "alt_km": 35802.39391800821,
        "timestamp": "2025-12-18T04:58:34.251977+00:00",
        "meta_object_name": "EUTELSAT 7B",
        "meta_object_id": "2013-022A",
        "meta_epoch": "2025-12-17T18:29:45.341952",
        "meta_mean_motion": 1.00270134,
        "meta_eccentricity": 0.0004278,
        "meta_inclination": 0.0655,
        "meta_ra_of_asc_node": 353.712,
        "meta_arg_of_pericenter": 327.1935,
        "meta_mean_anomaly": 50.1863,
        "meta_ephemeris_type": 0,
        "meta_classification_type": "U",
        "meta_norad_cat_id": 39163,
        "meta_element_set_no": 999,
        "meta_rev_at_epoch": 4612,
        "meta_bstar": 0,
        "meta_mean_motion_dot": 7.3e-07,
        "meta_mean_motion_ddot": 0,
        "tle_line1": "1 39163U 13022A   25351.77066368  .00000073  00000+0  00000+0 0  9997",
        "tle_line2": "2 39163   0.0655 353.7120 0004278 327.1935  50.1863  1.00270134 46126"
      },
      "geometry": {
        "type": "Point",
        "coordinates": [
          168.68852736655842,
          0.004821836917209914
        ]
      }
    },
    {
      "type": "Feature",
      "properties": {
        "norad_id": 39612,
        "name": "EXPRESS-AT1",
        "group": "eutelsat",
        "lat": -0.02806433818725438,
        "lon": -142.29082195399687,
        "alt_km": 35786.32919928886,
        "timestamp": "2025-12-18T04:58:34.251989+00:00",
        "meta_object_name": "EXPRESS-AT1",
        "meta_object_id": "2014-010A",
        "meta_epoch": "2025-12-17T22:09:07.344288",
        "meta_mean_motion": 1.00270901,
        "meta_eccentricity": 5.622e-05,
        "meta_inclination": 0.0127,
        "meta_ra_of_asc_node": 292.481,
        "meta_arg_of_pericenter": 195.0491,
        "meta_mean_anomaly": 347.543,
        "meta_ephemeris_type": 0,
        "meta_classification_type": "U",
        "meta_norad_cat_id": 39612,
        "meta_element_set_no": 999,
        "meta_rev_at_epoch": 4300,
        "meta_bstar": 0,
        "meta_mean_motion_dot": 1.04e-06,
        "meta_mean_motion_ddot": 0,
        "tle_line1": "1 39612U 14010A   25351.92300167  .00000104  00000+0  00000+0 0  9994",
        "tle_line2": "2 39612   0.0127 292.4810 0000562 195.0491 347.5430  1.00270901 43004"
      },
      "geometry": {
        "type": "Point",
        "coordinates": [
          -142.29082195399687,
          -0.02806433818725438
        ]
      }
    },
    {
      "type": "Feature",
      "properties": {
        "norad_id": 39613,
        "name": "EXPRESS-AT2",
        "group": "eutelsat",
        "lat": -0.007689723782688874,
        "lon": -58.437269327218424,
        "alt_km": 35781.86375089604,
        "timestamp": "2025-12-18T04:58:34.252001+00:00",
        "meta_object_name": "EXPRESS-AT2",
        "meta_object_id": "2014-010B",
        "meta_epoch": "2025-12-17T20:50:22.386624",
        "meta_mean_motion": 1.00272313,
        "meta_eccentricity": 0.0001007,
        "meta_inclination": 0.0158,
        "meta_ra_of_asc_node": 291.1378,
        "meta_arg_of_pericenter": 355.4108,
        "meta_mean_anomaly": 252.6388,
        "meta_ephemeris_type": 0,
        "meta_classification_type": "U",
        "meta_norad_cat_id": 39613,
        "meta_element_set_no": 999,
        "meta_rev_at_epoch": 4268,
        "meta_bstar": 0,
        "meta_mean_motion_dot": -2.56e-06,
        "meta_mean_motion_ddot": 0,
        "tle_line1": "1 39613U 14010B   25351.86831466 -.00000256  00000+0  00000+0 0  9998",
        "tle_line2": "2 39613   0.0158 291.1378 0001007 355.4108 252.6388  1.00272313 42686"
      },
      "geometry": {
        "type": "Point",
        "coordinates": [
          -58.437269327218424,
          -0.007689723782688874
        ]
      }
    }
  ]
}